OBJECT_NAME,OBJECT_ID,EPOCH,MEAN_MOTION,ECCENTRICITY,INCLINATION,RA_OF_ASC_NODE,ARG_OF_PERICENTER,MEAN_ANOMALY,EPHEMERIS_TYPE,CLASSIFICATION_TYPE,NORAD_CAT_ID,ELEMENT_SET_NO,REV_AT_EPOCH,BSTAR,MEAN_MOTION_DOT,MEAN_MOTION_DDOT
CSTP 1.1 (STC 1.1),2023-091AN,2026-05-27T06:14:01.228416,15.18889085,.0009858,97.5130,206.1877,172.6251,187.5131,0,U,57202,999,16078,.306034E-3,.6323E-4,0
UTMN 2 (RS27S),2023-091AP,2026-05-27T06:53:35.604960,15.31457328,.000926,97.5101,214.2265,146.0667,214.1168,0,U,57203,999,16134,.5256401E-3,.15925E-3,0
SITRO-AIS 12 (SMIRENNIY),2023-091AQ,2026-05-27T06:02:02.668128,15.37523222,.00079276,97.5104,217.5064,136.3830,223.8042,0,U,57204,999,16155,.67816246E-3,.24954E-3,0
2023-091AS,2023-091AS,2026-05-27T05:32:47.217984,15.59922604,.00046603,97.5056,225.8154,128.7261,231.4412,0,U,57206,999,16212,.10951251E-2,.88942E-3,0
SITRO-AIS 11 (SHEFFER),2023-091AU,2026-05-27T04:55:48.608544,15.37923491,.00078421,97.5103,217.6929,136.3508,223.8358,0,U,57208,999,16156,.7120092E-3,.26551E-3,0
H2SAT (HEINRICH HERTZ),2023-093A,2026-05-27T05:37:38.705664,1.00270869,.00007666,0.0134,132.2350,290.1509,267.5005,0,U,57213,999,1070,0,.7E-7,0
SYRACUSE 4B,2023-093B,2026-05-27T05:37:38.705664,1.00269413,.00002668,0.0197,320.1619,145.9138,216.6533,0,U,57214,999,675,0,0,0
KUZGTU 1 (RS47S),2023-091AV,2026-05-27T05:32:38.368896,15.29300103,.00117602,97.5080,211.5048,163.3311,196.8318,0,U,57217,999,16117,.51268221E-3,.14536E-3,0
STARLINK-5525,2023-094A,2026-05-26T19:19:43.051296,15.27578408,.0000682,43.0019,309.4570,269.2272,90.8502,0,U,57218,999,15906,.33090744E-4,.649E-5,0
STARLINK-5520,2023-094B,2026-05-26T11:33:46.634400,15.27578928,.00013033,43.0027,314.7250,268.2221,91.8481,0,U,57219,999,15897,.59749933E-4,.1382E-4,0
STARLINK-5880,2023-094C,2026-05-26T11:34:06.261024,15.26743354,.00016839,43.0032,314.7267,271.5310,88.5349,0,U,57220,999,15897,.35651904E-4,.697E-5,0
STARLINK-5875,2023-094D,2026-05-27T08:00:01.000224,15.54316347,.00018777,43.0002,308.1098,262.9668,133.8763,0,U,57221,999,586,.16685657E-1,.1233952E-1,0
STARLINK-5870,2023-094E,2026-05-26T18:59:22.136352,15.27578473,.00014971,43.0016,309.3424,261.1019,98.9664,0,U,57222,999,15969,.47046668E-4,.1033E-4,0
STARLINK-5519,2023-094F,2026-05-27T00:00:02.000160,15.27582750,.00016819,43.0018,311.6564,282.6237,114.2712,0,U,57223,999,577,.1355468E-2,.37229E-3,0
STARLINK-5983,2023-094G,2026-05-26T11:14:08.085696,15.27578077,.00017904,43.0023,311.2162,258.2914,101.7737,0,U,57224,999,15901,.29310427E-4,.544E-5,0
STARLINK-6294,2023-094H,2026-05-26T20:17:04.607808,15.27578987,.00016853,43.0055,309.7415,270.0866,89.9793,0,U,57225,999,15906,.38119478E-4,.787E-5,0
STARLINK-6350,2023-094J,2026-05-26T15:14:16.675008,15.27576678,.00016764,43.0048,310.7448,274.2409,85.8251,0,U,57226,999,15903,.26340078E-4,.462E-5,0
STARLINK-5996,2023-094K,2026-05-26T20:47:37.529376,15.27587648,.00018672,43.0033,312.4489,268.2791,91.7847,0,U,57227,999,15903,.11562899E-3,.2922E-4,0
STARLINK-6230,2023-094L,2026-05-26T12:27:58.126464,15.27558617,.00019769,43.0057,310.7423,280.5665,79.4964,0,U,57228,999,15902,-.51288522E-4,-.1673E-4,0
STARLINK-6233,2023-094M,2026-05-26T20:02:16.770912,15.27575049,.00020188,43.0055,309.6693,280.6100,79.4524,0,U,57229,999,15906,.13015918E-4,.96E-6,0
STARLINK-6250,2023-094N,2026-05-26T20:05:58.493184,15.27578966,.00014598,43.0042,309.6865,275.0784,84.9902,0,U,57230,999,15906,.30952988E-4,.59E-5,0
STARLINK-5840,2023-094P,2026-05-26T19:51:10.403136,15.27578976,.00012021,43.0035,309.6044,271.8922,88.1792,0,U,57231,999,15906,.8564444E-5,-.26E-6,0
STARLINK-5872,2023-094Q,2026-05-26T19:43:47.329248,15.27565745,.00011053,43.0025,309.5602,271.0624,89.0101,0,U,57232,999,15972,-.13753582E-4,-.64E-5,0
STARLINK-5866,2023-094R,2026-05-26T21:08:40.884864,15.27577974,.000109,43.0035,309.1536,270.0643,90.0084,0,U,57233,999,15907,.12448E-4,.81E-6,0
STARLINK-6368,2023-094S,2026-05-26T11:06:43.856640,15.27578301,.00015551,43.0026,311.1674,253.6280,106.4401,0,U,57234,999,15901,.2134305E-4,.325E-5,0
STARLINK-6360,2023-094T,2026-05-26T21:03:07.742016,15.27578317,.0001297,43.0033,309.1240,273.0471,87.0232,0,U,57235,999,15907,.20308E-4,.297E-5,0
STARLINK-6315,2023-094U,2026-05-26T11:06:57.849984,15.27578506,.00012882,43.0023,300.7412,268.7676,91.3028,0,U,57236,999,15913,.29621505E-4,.553E-5,0
STARLINK-6365,2023-094V,2026-05-26T19:16:02.396928,15.27573766,.00011823,43.0011,309.4231,268.1125,91.9592,0,U,57237,999,15906,.12815719E-3,.3265E-4,0
STARLINK-6334,2023-094W,2026-05-26T11:27:19.121760,15.27576000,.00006439,43.0034,300.8347,263.4616,96.6163,0,U,57238,999,15913,.27648963E-4,.499E-5,0
STARLINK-6330,2023-094X,2026-05-26T20:37:13.412064,15.27578104,.00015111,43.0028,308.9816,268.9403,91.1276,0,U,57239,999,15907,.64041301E-4,.15E-4,0
