CSTP 1.1 (STC 1.1)      
1 57202U 23091AN  26147.25973644  .00006323  00000+0  30603-3 0  9999
2 57202  97.5130 206.1877 0009858 172.6251 187.5131 15.18889085160789
UTMN 2 (RS27S)          
1 57203U 23091AP  26147.28721765  .00015925  00000+0  52564-3 0  9996
2 57203  97.5101 214.2265 0009260 146.0667 214.1168 15.31457328161348
SITRO-AIS 12 (SMIRENNIY)
1 57204U 23091AQ  26147.25141977  .00024954  00000+0  67816-3 0  9993
2 57204  97.5104 217.5064 0007927 136.3830 223.8042 15.37523222161551
2023-091AS              
1 57206U 23091AS  26147.23110206  .00088942  00000+0  10951-2 0  9998
2 57206  97.5056 225.8154 0004660 128.7261 231.4412 15.59922604162126
SITRO-AIS 11 (SHEFFER)  
1 57208U 23091AU  26147.20542371  .00026551  00000+0  71201-3 0  9993
2 57208  97.5103 217.6929 0007842 136.3508 223.8358 15.37923491161566
H2SAT (HEINRICH HERTZ)  
1 57213U 23093A   26147.23447576  .00000007  00000+0  00000+0 0  9998
2 57213   0.0134 132.2350 0000766 290.1509 267.5005  1.00270869 10705
SYRACUSE 4B             
1 57214U 23093B   26147.23447576  .00000000  00000+0  00000+0 0  9992
2 57214   0.0197 320.1619 0000266 145.9138 216.6533  1.00269413  6755
KUZGTU 1 (RS47S)        
1 57217U 23091AV  26147.23099964  .00014536  00000+0  51268-3 0  9992
2 57217  97.5080 211.5048 0011760 163.3311 196.8318 15.29300103161173
STARLINK-5525           
1 57218U 23094A   26146.80535939  .00000649  00000+0  33091-4 0  9990
2 57218  43.0019 309.4570 0000682 269.2272  90.8502 15.27578408159068
STARLINK-5520           
1 57219U 23094B   26146.48178975  .00001382  00000+0  59750-4 0  9993
2 57219  43.0027 314.7250 0001303 268.2221  91.8481 15.27578928158979
STARLINK-5880           
1 57220U 23094C   26146.48201691  .00000697  00000+0  35652-4 0  9990
2 57220  43.0032 314.7267 0001683 271.5310  88.5349 15.26743354158974
STARLINK-5875           
1 57221U 23094D   26147.33334491  .01233952  00000+0  16686-1 0  9997
2 57221  43.0002 308.1098 0001877 262.9668 133.8763 15.54316347  5868
STARLINK-5870           
1 57222U 23094E   26146.79122843  .00001033  00000+0  47047-4 0  9993
2 57222  43.0016 309.3424 0001497 261.1019  98.9664 15.27578473159691
STARLINK-5519           
1 57223U 23094F   26147.00002315  .00037229  00000+0  13555-2 0  9991
2 57223  43.0018 311.6564 0001681 282.6237 114.2712 15.27582750  5778
STARLINK-5983           
1 57224U 23094G   26146.46814914  .00000544  00000+0  29310-4 0  9995
2 57224  43.0023 311.2162 0001790 258.2914 101.7737 15.27578077159019
STARLINK-6294           
1 57225U 23094H   26146.84519222  .00000787  00000+0  38119-4 0  9998
2 57225  43.0055 309.7415 0001685 270.0866  89.9793 15.27578987159063
STARLINK-6350           
1 57226U 23094J   26146.63491522  .00000462  00000+0  26340-4 0  9991
2 57226  43.0048 310.7448 0001676 274.2409  85.8251 15.27576678159039
STARLINK-5996           
1 57227U 23094K   26146.86640659  .00002922  00000+0  11563-3 0  9997
2 57227  43.0033 312.4489 0001867 268.2791  91.7847 15.27587648159033
STARLINK-6230           
1 57228U 23094L   26146.51942276 -.00001673  00000+0 -51289-4 0  9994
2 57228  43.0057 310.7423 0001976 280.5665  79.4964 15.27558617159023
STARLINK-6233           
1 57229U 23094M   26146.83491633  .00000096  00000+0  13016-4 0  9998
2 57229  43.0055 309.6693 0002018 280.6100  79.4524 15.27575049159065
STARLINK-6250           
1 57230U 23094N   26146.83748256  .00000590  00000+0  30953-4 0  9994
2 57230  43.0042 309.6865 0001459 275.0784  84.9902 15.27578966159060
STARLINK-5840           
1 57231U 23094P   26146.82720374 -.00000026  00000+0  85644-5 0  9998
2 57231  43.0035 309.6044 0001202 271.8922  88.1792 15.27578976159060
STARLINK-5872           
1 57232U 23094Q   26146.82207557 -.00000640  00000+0 -13754-4 0  9997
2 57232  43.0025 309.5602 0001105 271.0624  89.0101 15.27565745159729
STARLINK-5866           
1 57233U 23094R   26146.88102876  .00000081  00000+0  12448-4 0  9998
2 57233  43.0035 309.1536 0001090 270.0643  90.0084 15.27577974159073
STARLINK-6368           
1 57234U 23094S   26146.46300760  .00000325  00000+0  21343-4 0  9990
2 57234  43.0026 311.1674 0001555 253.6280 106.4401 15.27578301159014
STARLINK-6360           
1 57235U 23094T   26146.87717294  .00000297  00000+0  20308-4 0  9998
2 57235  43.0033 309.1240 0001297 273.0471  87.0232 15.27578317159079
STARLINK-6315           
1 57236U 23094U   26146.46316956  .00000553  00000+0  29622-4 0  9997
2 57236  43.0023 300.7412 0001288 268.7676  91.3028 15.27578506159133
STARLINK-6365           
1 57237U 23094V   26146.80280552  .00003265  00000+0  12816-3 0  9997
2 57237  43.0011 309.4231 0001182 268.1125  91.9592 15.27573766159069
STARLINK-6334           
1 57238U 23094W   26146.47730465  .00000499  00000+0  27649-4 0  9991
2 57238  43.0034 300.8347 0000643 263.4616  96.6163 15.27576000159130
STARLINK-6330           
1 57239U 23094X   26146.85918301  .00001500  00000+0  64041-4 0  9992
2 57239  43.0028 308.9816 0001511 268.9403  91.1276 15.27578104159078
